GSAT0201 (GALILEO 5)    
1 40128U 14050A   23237.10209032 -.00000057  00000+0  00000+0 0  9990
2 40128  49.9444 314.9771 1609344 139.9857 233.0807  1.85519072 59265
GSAT0202 (GALILEO 6)    
1 40129U 14050B   23237.36151587 -.00000054  00000+0  00000+0 0  9997
2 40129  49.9636 314.0381 1607219 140.8063 232.0349  1.85519702 61438
IRNSS-1C                
1 40269U 14061A   23237.09077334 -.00000160  00000+0  00000+0 0  9999
2 40269   3.9393 113.0290 0020209  16.2746 319.4910  1.00272407 32381
NAVSTAR 72 (USA 258)    
1 40294U 14068A   23236.85237782 -.00000005  00000+0  00000+0 0  9990
2 40294  56.1675  70.8714 0049006  61.5035 299.0562  2.00571102 64604
COSMOS 2501             
1 40315U 14075A   23237.09200158  .00000104  00000+0  00000+0 0  9995
2 40315  63.6411 226.0167 0020182 211.6446 148.2501  2.13101349 67960
NAVSTAR 73 (USA 260)    
1 40534U 15013A   23237.48622410  .00000085  00000+0  00000+0 0  9991
2 40534  53.4690 246.6985 0079936  25.1474 335.2789  2.00555277 61234
GSAT0203 (GALILEO 7)    
1 40544U 15017A   23234.75797804 -.00000073  00000+0  00000+0 0  9991
2 40544  56.9037   9.6141 0002636 220.6603 139.3273  1.70476174 51658
GSAT0204 (GALILEO 8)    
1 40545U 15017B   23236.77132544 -.00000072  00000+0  00000+0 0  9999
2 40545  56.9097   9.5738 0003200 203.2923 156.7011  1.70475543 14736
IRNSS-1D                
1 40547U 15018A   23236.87747240 -.00000249  00000+0  00000+0 0  9994
2 40547  28.0936 257.8117 0020546 191.4043 311.3073  1.00268363 30943
BEIDOU-3S IGSO-1S       
1 40549U 15019A   23236.19330503 -.00000158  00000+0  00000+0 0  9991
2 40549  51.1206 307.7053 0040648 195.4159 353.1874  1.00258511 30760
NAVSTAR 74 (USA 262)    
1 40730U 15033A   23236.65061754 -.00000035  00000+0  00000+0 0  9993
2 40730  54.8543 309.1656 0084924  14.0108 346.2874  2.00555786 59383
BEIDOU-3S M2S           
1 40748U 15037A   23237.13053377 -.00000080  00000+0  00000+0 0  9992
2 40748  55.6685 337.1134 0010779 239.7430 120.1844  1.86233086 54998
BEIDOU-3S M1S           
1 40749U 15037B   23236.86367058 -.00000080  00000+0  00000+0 0  9996
2 40749  55.6716 337.1088 0002779 306.8343  53.1744  1.86232832 54983
GSAT0205 (GALILEO 9)    
1 40889U 15045A   23236.53927474  .00000073  00000+0  00000+0 0  9999
2 40889  55.3692 249.9948 0003323 357.2511   2.7901  1.70473430 49495
GSAT0206 (GALILEO 10)   
1 40890U 15045B   23235.58678725  .00000069  00000+0  00000+0 0  9992
2 40890  55.3688 250.0167 0002288 321.6410  38.3831  1.70473517 49505
BEIDOU-3S IGSO-2S       
1 40938U 15053A   23237.04768692 -.00000082  00000+0  00000+0 0  9996
2 40938  50.8254 270.8658 0047726 194.5057 340.5082  1.00285513 29056
NAVSTAR 75 (USA 265)    
1 41019U 15062A   23235.20788423 -.00000013  00000+0  00000+0 0  9991
2 41019  56.1502  70.7854 0088591 221.0512 138.3426  2.00562202 57199
GSAT-15                 
1 41028U 15065A   23237.58847057 -.00000255  00000+0  00000+0 0  9994
2 41028   0.0854 273.9818 0002312 201.7455 163.2184  1.00271287 28502
GSAT0209 (GALILEO 12)   
1 41174U 15079A   23236.93165042  .00000002  00000+0  00000+0 0  9995
2 41174  55.2959 129.4863 0003365 326.1166  33.9224  1.70473869 47266
GSAT0208 (GALILEO 11)   
1 41175U 15079B   23237.15126477  .00000001  00000+0  00000+0 0  9999
2 41175  55.2943 129.4784 0002660 331.8640  28.1817  1.70473780 47681
IRNSS-1E                
1 41241U 16003A   23237.49424302 -.00000301  00000+0  00000+0 0  9990
2 41241  30.9533  77.9445 0019825 173.7380  11.5571  1.00269840 27781
NAVSTAR 76 (USA 266)    
1 41328U 16007A   23236.79633901 -.00000007  00000+0  00000+0 0  9992
2 41328  55.0135 130.2697 0071712 234.5775 124.8073  2.00550667 55239
COSMOS 2514             
1 41330U 16008A   23237.54251685 -.00000065  00000+0  00000+0 0  9999
2 41330  65.5066 348.0099 0011428 205.1915 154.7760  2.13102526 58749
IRNSS-1F                
1 41384U 16015A   23237.09424465  .00000162  00000+0  00000+0 0  9991
2 41384   2.9120 130.3095 0018153 177.0782  91.9961  1.00265973 27363
BEIDOU-2 IGSO-6         
1 41434U 16021A   23237.39556993 -.00000130  00000+0  00000+0 0  9995
2 41434  58.7375  48.3675 0047091 217.7348 305.8437  1.00284820 27182
IRNSS-1G                
1 41469U 16027A   23237.55049618 -.00000333  00000+0  00000+0 0  9993
2 41469   2.8050 132.0034 0003822 356.0159 173.2835  1.00268638 26885
GSAT0211 (GALILEO 14)   
1 41549U 16030A   23237.27223125  .00000076  00000+0  00000+0 0  9995
2 41549  55.5151 249.9492 0003918 307.0377  52.9715  1.70473531 45160
GSAT0210 (GALILEO 13)   
1 41550U 16030B   23235.80400540  .00000071  00000+0  00000+0 0  9997
2 41550  55.5153 249.9908 0004222 272.8261  87.1666  1.70473648 45137
COSMOS 2516             
1 41554U 16032A   23237.18827344  .00000105  00000+0  00000+0 0  9999
2 41554  63.8676 226.4114 0015522 214.7675 145.1478  2.13106415 56345
BEIDOU-2 G7             
1 41586U 16037A   23237.55604751 -.00000352  00000+0  00000+0 0  9990
2 41586   1.8458  68.2876 0007874 348.1330 227.8201  1.00276228 26498
EUTELSAT 117 WEST B     
1 41589U 16038B   23237.28174392 -.00000007  00000+0  00000+0 0  9994
2 41589   0.0052 325.6953 0000271 305.6069  46.4074  1.00272740 26363
GSAT0207 (GALILEO 15)   
1 41859U 16069A   23237.22550055  .00000000  00000+0  00000+0 0  9998
2 41859  54.9585 129.5526 0003353 306.9773  53.0517  1.70473827 41896
GSAT0212 (GALILEO 16)   
1 41860U 16069B   23237.08017750  .00000001  00000+0  00000+0 0  9995
2 41860  54.9560 129.5535 0002541 349.0650  10.9893  1.70474010 42144
GSAT0213 (GALILEO 17)   
1 41861U 16069C   23234.51323833  .00000009  00000+0  00000+0 0  9991
2 41861  54.9575 129.6307 0003187 280.2221  79.8081  1.70472742 41968
GSAT0214 (GALILEO 18)   
1 41862U 16069D   23237.00681060  .00000001  00000+0  00000+0 0  9990
2 41862  54.9569 129.5555 0002178 288.8087  71.2276  1.70472546 42133
SES-15                  
1 42709U 17026A   23237.58899171  .00000064  00000+0  00000+0 0  9991
2 42709   0.0211  40.6305 0000514  87.1548 288.6775  1.00268574 23842
QZS-2 (MICHIBIKI-2)     
1 42738U 17028A   23237.38255135 -.00000086  00000+0  00000+0 0  9994
2 42738  41.0593 258.0072 0753223 269.9476  84.5691  1.00267617 22857
QZS-3 (MICHIBIKI-3)     
1 42917U 17048A   23237.05119031 -.00000343  00000+0  00000+0 0  9999
2 42917   0.0716 142.2650 0002739  18.7196 317.4867  1.00267317 21963
COSMOS 2522             
1 42939U 17055A   23235.03807713  .00000101  00000+0  00000+0 0  9999
2 42939  64.1019 227.0074 0010105 243.2406 116.6696  2.13101996 46041
QZS-4 (MICHIBIKI-4)     
1 42965U 17062A   23236.63735201 -.00000302  00000+0  00000+0 0  9999
2 42965  40.6404 356.5830 0747005 269.0965  75.6045  1.00283789 21509
BEIDOU-3 M1             
1 43001U 17069A   23236.94098618 -.00000002  00000+0  00000+0 0  9993
2 43001  55.8336  97.1742 0008174 302.1682  57.8369  1.86231530 39472
BEIDOU-3 M2             
1 43002U 17069B   23236.87769543 -.00000002  00000+0  00000+0 0  9998
2 43002  55.8331  97.2117 0006684 333.2468  26.8032  1.86231118 39460
GSAT0215 (GALILEO 19)   
1 43055U 17079A   23236.32247788  .00000073  00000+0  00000+0 0  9996
2 43055  55.4919 249.8015 0003769 267.4808  92.5182  1.70474215 35467
GSAT0216 (GALILEO 20)   
1 43056U 17079B   23236.02781840  .00000072  00000+0  00000+0 0  9995
2 43056  55.4925 249.8095 0005309 272.9611  87.0195  1.70474391 35477
GSAT0217 (GALILEO 21)   
1 43057U 17079C   23235.66158619  .00000070  00000+0  00000+0 0  9995
2 43057  55.4921 249.8185 0004688 284.8876  75.1008  1.70474332 35452
GSAT0218 (GALILEO 22)   
1 43058U 17079D   23237.05481251  .00000075  00000+0  00000+0 0  9997
2 43058  55.4902 249.7777 0005778 270.5115  89.4665  1.70474264 35504
BEIDOU-3 M7             
1 43107U 18003A   23234.48075335 -.00000083  00000+0  00000+0 0  9996
2 43107  55.1261 337.9254 0003870  78.7242 281.3542  1.86232528 38179
BEIDOU-3 M8             
1 43108U 18003B   23235.49265739 -.00000082  00000+0  00000+0 0  9997
2 43108  55.1186 337.8778 0003659 240.8599 119.1381  1.86230922 38207
BEIDOU-3 M4             
1 43207U 18018A   23237.00899589 -.00000002  00000+0  00000+0 0  9990
2 43207  55.7924  97.2713 0005091   9.3124 350.7815  1.86231459 37618
BEIDOU-3 M3             
1 43208U 18018B   23237.07564368 -.00000001  00000+0  00000+0 0  9991
2 43208  55.7919  97.2735 0006208 318.6446  41.3929  1.86231330 37618
BEIDOU-3 M9             
1 43245U 18029A   23237.29850388 -.00000079  00000+0  00000+0 0  9993
2 43245  55.0194 335.5642 0001178 199.0952 160.9360  1.86232524 36775
BEIDOU-3 M10            
1 43246U 18029B   23236.15466312 -.00000080  00000+0  00000+0 0  9990
2 43246  55.0170 335.6315 0002734   3.1527 356.8856  1.86232903 36733
IRNSS-1I                
1 43286U 18035A   23235.67175032  .00000085  00000+0  00000+0 0  9997
2 43286  29.2209  90.3812 0019476 177.8711   0.4886  1.00278616 19761
COSMOS 2527             
1 43508U 18053A   23235.46601853  .00000011  00000+0  00000+0 0  9995
2 43508  65.0870 108.3483 0007399 222.7352 137.2907  2.13102455 40350
BEIDOU-2 IGSO-7         
1 43539U 18057A   23236.74563203 -.00000128  00000+0  00000+0 0  9991
2 43539  55.1212 171.9524 0064575 231.4917 310.6186  1.00286873 18846
GSAT0221 (GALILEO 25)   
1 43564U 18060A   23236.36791073 -.00000071  00000+0  00000+0 0  9996
2 43564  57.2843   9.4959 0002293 253.2125 106.7703  1.70476019 31648
GSAT0222 (GALILEO 26)   
1 43565U 18060B   23235.99939588 -.00000071  00000+0  00000+0 0  9990
2 43565  57.2877   9.5069 0003024 205.1952 154.7981  1.70475775 31689
GSAT0219 (GALILEO 23)   
1 43566U 18060C   23237.39490994 -.00000072  00000+0  00000+0 0  9991
2 43566  57.2871   9.4713 0001383 257.3703 102.6212  1.70475976 31680
GSAT0220 (GALILEO 24)   
1 43567U 18060D   23236.44214631 -.00000071  00000+0  00000+0 0  9998
2 43567  57.2864   9.4981 0001616 250.2487 109.7418  1.70475852 31656
BEIDOU-3 M5             
1 43581U 18062A   23237.44888512  .00000087  00000+0  00000+0 0  9998
2 43581  54.1802 217.2498 0005532 278.4026  81.5288  1.86231836 34513
